{"type": "FeatureCollection", "features": [ {"type": "Feature", "properties": {"norad_id": 33841, "name": "COSMOS 2251 DEB", "group": "cosmos-2251-debris", "lat": 73.81021794127628, "lon": 2.1914131437533415, "alt_km": 763.5378022459863, "timestamp": "2025-12-21T03:56:51.225769+00:00", "meta": {"OBJECT_NAME": "COSMOS 2251 DEB", "OBJECT_ID": "1993-036CJ", "EPOCH": "2025-12-20T04:50:53.448864", "MEAN_MOTION": 14.3787057, "ECCENTRICITY": 0.00208485, "INCLINATION": 74.0378, "RA_OF_ASC_NODE": 264.3028, "ARG_OF_PERICENTER": 343.2857, "MEAN_ANOMALY": 169.0859, "EPHEMERIS_TYPE": 0, "CLASSIFICATION_TYPE": "U", "NORAD_CAT_ID": 33841, "ELEMENT_SET_NO": 999, "REV_AT_EPOCH": 88221, "BSTAR": 0.00015733139, "MEAN_MOTION_DOT": 4.49e-06, "MEAN_MOTION_DDOT": 0}, "tle": {"line1": "1 33841U 93036CJ  25354.20200751  .00000449  00000+0  15733-3 0  9994", "line2": "2 33841  74.0378 264.3028 0020848 343.2857 169.0859 14.37870570882210"}}, "geometry": {"type": "Point", "coordinates": [2.1914131437533415, 73.81021794127628]}}, {"type": "Feature", "properties": {"norad_id": 33842, "name": "COSMOS 2251 DEB", "group": "cosmos-2251-debris", "lat": 43.89172529802395, "lon": 8.024855561491554, "alt_km": 779.2723809703712, "timestamp": "2025-12-21T03:56:51.225778+00:00", "meta": {"OBJECT_NAME": "COSMOS 2251 DEB", "OBJECT_ID": "1993-036CK", "EPOCH": "2025-12-20T15:40:41.308032", "MEAN_MOTION": 14.42711384, "ECCENTRICITY": 0.0047496, "INCLINATION": 74.0319, "RA_OF_ASC_NODE": 204.963, "ARG_OF_PERICENTER": 310.7162, "MEAN_ANOMALY": 48.9873, "EPHEMERIS_TYPE": 0, "CLASSIFICATION_TYPE": "U", "NORAD_CAT_ID": 33842, "ELEMENT_SET_NO": 999, "REV_AT_EPOCH": 88451, "BSTAR": 0.00018395, "MEAN_MOTION_DOT": 5.93e-06, "MEAN_MOTION_DDOT": 0}, "tle": {"line1": "1 33842U 93036CK  25354.65325588  .00000593  00000+0  18395-3 0  9997", "line2": "2 33842  74.0319 204.9630 0047496 310.7162  48.9873 14.42711384884510"}}, "geometry": {"type": "Point", "coordinates": [8.024855561491554, 43.89172529802395]}}, {"type": "Feature", "properties": {"norad_id": 33844, "name": "COSMOS 2251 DEB", "group": "cosmos-2251-debris", "lat": 26.039707811024435, "lon": -150.62491515700182, "alt_km": 781.4383117978978, "timestamp": "2025-12-21T03:56:51.225787+00:00", "meta": {"OBJECT_NAME": "COSMOS 2251 DEB", "OBJECT_ID": "1993-036CM", "EPOCH": "2025-12-20T14:23:09.328992", "MEAN_MOTION": 14.33730548, "ECCENTRICITY": 0.00471, "INCLINATION": 74.0667, "RA_OF_ASC_NODE": 38.4296, "ARG_OF_PERICENTER": 57.8225, "MEAN_ANOMALY": 58.9899, "EPHEMERIS_TYPE": 0, "CLASSIFICATION_TYPE": "U", "NORAD_CAT_ID": 33844, "ELEMENT_SET_NO": 999, "REV_AT_EPOCH": 87838, "BSTAR": 0.00024496, "MEAN_MOTION_DOT": 6.63e-06, "MEAN_MOTION_DDOT": 0}, "tle": {"line1": "1 33844U 93036CM  25354.59941353  .00000663  00000+0  24496-3 0  9993", "line2": "2 33844  74.0667  38.4296 0047100  57.8225  58.9899 14.33730548878387"}}, "geometry": {"type": "Point", "coordinates": [-150.62491515700182, 26.039707811024435]}}, {"type": "Feature", "properties": {"norad_id": 33848, "name": "COSMOS 2251 DEB", "group": "cosmos-2251-debris", "lat": -68.16876110191362, "lon": -63.656463045314425, "alt_km": 761.9557830706462, "timestamp": "2025-12-21T03:56:51.225796+00:00", "meta": {"OBJECT_NAME": "COSMOS 2251 DEB", "OBJECT_ID": "1993-036CR", "EPOCH": "2025-12-20T17:28:48.035136", "MEAN_MOTION": 14.44110535, "ECCENTRICITY": 0.0041604, "INCLINATION": 74.0316, "RA_OF_ASC_NODE": 342.7781, "ARG_OF_PERICENTER": 36.1832, "MEAN_ANOMALY": 142.8437, "EPHEMERIS_TYPE": 0, "CLASSIFICATION_TYPE": "U", "NORAD_CAT_ID": 33848, "ELEMENT_SET_NO": 999, "REV_AT_EPOCH": 87946, "BSTAR": 0.00072408, "MEAN_MOTION_DOT": 2.481e-05, "MEAN_MOTION_DDOT": 0}, "tle": {"line1": "1 33848U 93036CR  25354.72833374  .00002481  00000+0  72408-3 0  9991", "line2": "2 33848  74.0316 342.7781 0041604  36.1832 142.8437 14.44110535879460"}}, "geometry": {"type": "Point", "coordinates": [-63.656463045314425, -68.16876110191362]}}, {"type": "Feature", "properties": {"norad_id": 33892, "name": "COSMOS 2251 DEB", "group": "cosmos-2251-debris", "lat": -54.828268149589206, "lon": 62.32939741991161, "alt_km": 901.17498245142, "timestamp": "2025-12-21T03:56:51.225805+00:00", "meta": {"OBJECT_NAME": "COSMOS 2251 DEB", "OBJECT_ID": "1993-036CV", "EPOCH": "2025-12-20T00:22:08.893344", "MEAN_MOTION": 14.23361225, "ECCENTRICITY": 0.01124489, "INCLINATION": 73.8027, "RA_OF_ASC_NODE": 88.7851, "ARG_OF_PERICENTER": 118.6054, "MEAN_ANOMALY": 57.4187, "EPHEMERIS_TYPE": 0, "CLASSIFICATION_TYPE": "U", "NORAD_CAT_ID": 33892, "ELEMENT_SET_NO": 999, "REV_AT_EPOCH": 87058, "BSTAR": 0.0004540357, "MEAN_MOTION_DOT": 1.073e-05, "MEAN_MOTION_DDOT": 0}, "tle": {"line1": "1 33892U 93036CV  25354.01538071  .00001073  00000+0  45404-3 0  9990", "line2": "2 33892  73.8027  88.7851 0112448 118.6054  57.4187 14.23361225870585"}}, "geometry": {"type": "Point", "coordinates": [62.32939741991161, -54.828268149589206]}}, {"type": "Feature", "properties": {"norad_id": 33894, "name": "COSMOS 2251 DEB", "group": "cosmos-2251-debris", "lat": 6.755297021070198, "lon": -21.97948507931592, "alt_km": 1328.816057551131, "timestamp": "2025-12-21T03:56:51.225815+00:00", "meta": {"OBJECT_NAME": "COSMOS 2251 DEB", "OBJECT_ID": "1993-036CX", "EPOCH": "2025-12-19T22:50:18.443904", "MEAN_MOTION": 13.21320525, "ECCENTRICITY": 0.05791531, "INCLINATION": 73.767, "RA_OF_ASC_NODE": 337.9187, "ARG_OF_PERICENTER": 256.3901, "MEAN_ANOMALY": 97.2081, "EPHEMERIS_TYPE": 0, "CLASSIFICATION_TYPE": "U", "NORAD_CAT_ID": 33894, "ELEMENT_SET_NO": 999, "REV_AT_EPOCH": 80803, "BSTAR": 0.00109059, "MEAN_MOTION_DOT": 1.062e-05, "MEAN_MOTION_DDOT": 0}, "tle": {"line1": "1 33894U 93036CX  25353.95160236  .00001062  00000+0  10906-2 0  9994", "line2": "2 33894  73.7670 337.9187 0579153 256.3901  97.2081 13.21320525808033"}}, "geometry": {"type": "Point", "coordinates": [-21.97948507931592, 6.755297021070198]}}, {"type": "Feature", "properties": {"norad_id": 33896, "name": "COSMOS 2251 DEB", "group": "cosmos-2251-debris", "lat": -55.55563446611855, "lon": -13.473858431526827, "alt_km": 812.9365144273188, "timestamp": "2025-12-21T03:56:51.225824+00:00", "meta": {"OBJECT_NAME": "COSMOS 2251 DEB", "OBJECT_ID": "1993-036CZ", "EPOCH": "2025-12-20T18:54:32.607360", "MEAN_MOTION": 14.19055293, "ECCENTRICITY": 0.0126852, "INCLINATION": 73.7664, "RA_OF_ASC_NODE": 142.0718, "ARG_OF_PERICENTER": 316.483, "MEAN_ANOMALY": 160.89, "EPHEMERIS_TYPE": 0, "CLASSIFICATION_TYPE": "U", "NORAD_CAT_ID": 33896, "ELEMENT_SET_NO": 999, "REV_AT_EPOCH": 86854, "BSTAR": 0.00031007, "MEAN_MOTION_DOT": 6.74e-06, "MEAN_MOTION_DDOT": 0}, "tle": {"line1": "1 33896U 93036CZ  25354.78787740  .00000674  00000+0  31007-3 0  9997", "line2": "2 33896  73.7664 142.0718 0126852 316.4830 160.8900 14.19055293868540"}}, "geometry": {"type": "Point", "coordinates": [-13.473858431526827, -55.55563446611855]}}, {"type": "Feature", "properties": {"norad_id": 33899, "name": "COSMOS 2251 DEB", "group": "cosmos-2251-debris", "lat": 72.40420007998077, "lon": -174.72318520865412, "alt_km": 648.1792259944987, "timestamp": "2025-12-21T03:56:51.225833+00:00", "meta": {"OBJECT_NAME": "COSMOS 2251 DEB", "OBJECT_ID": "1993-036DC", "EPOCH": "2025-12-20T04:37:37.423200", "MEAN_MOTION": 14.61249146, "ECCENTRICITY": 0.00562569, "INCLINATION": 74.0544, "RA_OF_ASC_NODE": 71.4909, "ARG_OF_PERICENTER": 132.0189, "MEAN_ANOMALY": 256.3671, "EPHEMERIS_TYPE": 0, "CLASSIFICATION_TYPE": "U", "NORAD_CAT_ID": 33899, "ELEMENT_SET_NO": 999, "REV_AT_EPOCH": 88948, "BSTAR": 0.0005222702, "MEAN_MOTION_DOT": 2.604e-05, "MEAN_MOTION_DDOT": 0}, "tle": {"line1": "1 33899U 93036DC  25354.19279425  .00002604  00000+0  52227-3 0  9993", "line2": "2 33899  74.0544  71.4909 0056256 132.0189 256.3671 14.61249146889481"}}, "geometry": {"type": "Point", "coordinates": [-174.72318520865412, 72.40420007998077]}}, {"type": "Feature", "properties": {"norad_id": 33900, "name": "COSMOS 2251 DEB", "group": "cosmos-2251-debris", "lat": 43.621172291621946, "lon": -0.3391081203505221, "alt_km": 692.8705678442848, "timestamp": "2025-12-21T03:56:51.225842+00:00", "meta": {"OBJECT_NAME": "COSMOS 2251 DEB", "OBJECT_ID": "1993-036DD", "EPOCH": "2025-12-20T19:51:06.973056", "MEAN_MOTION": 14.58372127, "ECCENTRICITY": 0.0046485, "INCLINATION": 74.0182, "RA_OF_ASC_NODE": 344.4534, "ARG_OF_PERICENTER": 134.2112, "MEAN_ANOMALY": 302.0182, "EPHEMERIS_TYPE": 0, "CLASSIFICATION_TYPE": "U", "NORAD_CAT_ID": 33900, "ELEMENT_SET_NO": 999, "REV_AT_EPOCH": 89154, "BSTAR": 0.00024778, "MEAN_MOTION_DOT": 1.135e-05, "MEAN_MOTION_DDOT": 0}, "tle": {"line1": "1 33900U 93036DD  25354.82716404  .00001135  00000+0  24778-3 0  9997", "line2": "2 33900  74.0182 344.4534 0046485 134.2112 302.0182 14.58372127891540"}}, "geometry": {"type": "Point", "coordinates": [-0.3391081203505221, 43.621172291621946]}}, {"type": "Feature", "properties": {"norad_id": 33901, "name": "COSMOS 2251 DEB", "group": "cosmos-2251-debris", "lat": -13.853856880551655, "lon": 27.335021026806764, "alt_km": 540.9167373498831, "timestamp": "2025-12-21T03:56:51.225851+00:00", "meta": {"OBJECT_NAME": "COSMOS 2251 DEB", "OBJECT_ID": "1993-036DE", "EPOCH": "2025-12-20T12:10:51.901824", "MEAN_MOTION": 15.16699161, "ECCENTRICITY": 0.0030399, "INCLINATION": 73.7751, "RA_OF_ASC_NODE": 32.8446, "ARG_OF_PERICENTER": 164.0986, "MEAN_ANOMALY": 196.1171, "EPHEMERIS_TYPE": 0, "CLASSIFICATION_TYPE": "U", "NORAD_CAT_ID": 33901, "ELEMENT_SET_NO": 999, "REV_AT_EPOCH": 89631, "BSTAR": 0.0016469, "MEAN_MOTION_DOT": 0.00032763, "MEAN_MOTION_DDOT": 0}, "tle": {"line1": "1 33901U 93036DE  25354.50754516  .00032763  00000+0  16469-2 0  9997", "line2": "2 33901  73.7751  32.8446 0030399 164.0986 196.1171 15.16699161896311"}}, "geometry": {"type": "Point", "coordinates": [27.335021026806764, -13.853856880551655]}}]}